STARLINK-31025          
1 58634U 23203S   24014.25002315 -.01667632  00000+0 -22503-1 0  9990
2 58634  43.0011 176.6140 0001449 264.8276 343.0185 15.59824962  4745
STARLINK-31018          
1 58635U 23203T   24014.58334491 -.02193510  00000+0 -49258-1 0  9996
2 58635  43.0008 176.0667 0001134 276.9961 190.1790 15.46312699  4788
STARLINK-31008          
1 58636U 23203U   24014.25002315 -.02178292  00000+0 -47338-1 0  9995
2 58636  43.0013 178.0075 0001728 267.0510 139.9410 15.47217185  4730
STARLINK-31077          
1 58637U 23203V   24014.25002315 -.02176080  00000+0 -45147-1 0  9995
2 58637  43.0013 178.0007 0001679 265.1515 144.6269 15.48528547  4671
STARLINK-31078          
1 58638U 23203W   24014.25002315 -.02220296  00000+0 -45072-1 0  9992
2 58638  43.0012 177.9985 0001779 266.5215 144.1413 15.49216707  4733
STARLINK-31070          
1 58639U 23203X   24014.58334491 -.02094212  00000+0 -42724-1 0  9990
2 58639  43.0011 176.0510 0001393 250.5993 222.6987 15.48865056  4784
STARLINK-31090          
1 58640U 23203Y   24014.61708205  .00007436  00000+0  10000-3 0  9996
2 58640  43.0253 175.5907 0001083  43.3473   1.2118 15.58368535  4794
TIANMU-1 11             
1 58645U 23205A   24014.44391281  .00006064  00000+0  33920-3 0  9998
2 58645  97.4192  43.5316 0010847 200.2411 159.8392 15.13777388  3093
TIANMU-1 12             
1 58646U 23205B   24014.44637478  .00006214  00000+0  34873-3 0  9995
2 58646  97.4178  43.5244 0010162 197.3069 162.7818 15.13654960  3088
TIANMU-1 13             
1 58647U 23205C   24014.45085021  .00005936  00000+0  33881-3 0  9996
2 58647  97.4208  43.5268 0010157 188.3425 171.7639 15.13064927  3088
TIANMU-1 14             
1 58648U 23205D   24014.44686113  .00006066  00000+0  34075-3 0  9996
2 58648  97.4133  43.5113 0010635 192.6513 167.4453 15.13628498  3087
KZ-1A R/B               
1 58649U 23205E   24014.06227941  .00429247  60827-4  10068-2 0  9998
2 58649  97.4080  44.8139 0174200 322.1597  36.7523 15.75724394  3134
SHIYAN 24C 01           
1 58650U 23206A   24014.51197224  .00005404  00000+0  36834-3 0  9998
2 58650  97.3340  22.6215 0010957 199.2443 160.8372 15.06596488  2948
SHIYAN 24C 02           
1 58651U 23206B   24014.51111024  .00004759  00000+0  32495-3 0  9994
2 58651  97.3344  22.6234 0009374 222.1646 137.8862 15.06595300  2946
SHIYAN 24C 03           
1 58652U 23206C   24014.51166823  .00003761  00000+0  25800-3 0  9996
2 58652  97.3337  22.6208 0011150 219.9627 140.0782 15.06536022  2930
CZ-11 R/B               
1 58653U 23206D   24012.07196299  .01560950  23108-5  41964-3 0  9994
2 58653  97.1786  21.6752 0193347 270.6142  87.3007 15.95837142  2696
BEIDOU-3 M25            
1 58654U 23207A   24010.60278281 -.00000020  00000+0  00000+0 0  9994
2 58654  54.9818  92.4790 0117519 178.9635 181.0945  1.82957602   298
BEIDOU-3 M26            
1 58655U 23207B   24005.84694770 -.00000037  00000+0  00000+0 0  9998
2 58655  54.6471  92.7627 0316732  68.9835  87.0455  1.85607573   193
YZ-1 R/B                
1 58656U 23207C   24012.59110386 -.00000020  00000+0  00000+0 0  9997
2 58656  55.0404  92.2547 0027687 330.2354  29.6534  1.79266717   318
CZ-3B R/B               
1 58657U 23207D   24013.38140090  .00061377  00000+0  21324-2 0  9997
2 58657  54.9597  82.8780 5794840 176.0076 192.3134  4.42997907   812
COSMOS 2574             
1 58658U 23209A   24014.49372813  .00032702  00000+0  24675-3 0  9996
2 58658  96.7549 273.1478 0005564 341.8735  18.2331 15.72397609  2860
SL-4 R/B                
1 58659U 23209B   24013.71686872  .00076064  00000+0  52752-3 0  9990
2 58659  96.7584 272.4440 0002707 334.2337  25.8794 15.74233232  2726
TIANMU-1 19             
1 58660U 23208A   24014.17618348  .00008645  00000+0  48318-3 0  9998
2 58660  97.4007 130.8247 0010958 184.1415 175.9728 15.13677005  2710
TIANMU-1 20             
1 58661U 23208B   24014.50408037  .00008173  00000+0  45183-3 0  9991
2 58661  97.3928 131.1299 0010851 190.0908 170.0108 15.14090516  2768
TIANMU-1 21             
1 58662U 23208C   24014.50288335  .00008607  00000+0  47429-3 0  9996
2 58662  97.3974 131.1429 0009947 190.4657 169.6370 15.14196832  2767
TIANMU-1 22             
1 58663U 23208D   24014.49897933  .00008073  00000+0  44113-3 0  9999
2 58663  97.3988 131.1515 0010308 199.8180 160.2653 15.14515173  2760
STARLINK-31113          
1 58668U 23211B   24014.25002315 -.01740661  00000+0 -16501-1 0  9991
2 58668  43.0003 196.0573 0001629 269.3999 316.3410 15.69249550  3671
STARLINK-31128          
1 58669U 23211C   24014.25002315 -.01740189  00000+0 -16508-1 0  9994
2 58669  43.0005 196.0384 0001521 269.0706 324.5631 15.69233279  3462
STARLINK-31083          
1 58670U 23211D   24014.25002315 -.01740327  00000+0 -16495-1 0  9995
2 58670  43.0007 196.0639 0001552 257.6249 326.3612 15.69253893  3573
STARLINK-30828          
1 58671U 23211E   24014.25002315 -.01741617  00000+0 -16512-1 0  9999
2 58671  43.0005 196.0608 0001298 264.7873 320.0766 15.69252329  3199
STARLINK-31104          
1 58672U 23211F   24014.25002315 -.01742941  00000+0 -16522-1 0  9992
2 58672  43.0008 196.0661 0001461 264.9889 318.1206 15.69256770  3677
STARLINK-31131          
1 58673U 23211G   24014.58334491 -.00176495  00000+0 -68561-3 0  9998
2 58673  42.9985 193.3165 0002237 275.6462 330.0792 15.86553936  3730
STARLINK-31124          
1 58674U 23211H   24013.58335648 -.01731148  00000+0 -14758-1 0  9993
2 58674  43.0002 200.0748 0001922 287.1405 125.7757 15.71733316  3467
STARLINK-31126          
1 58675U 23211J   24014.25002315 -.01737162  00000+0 -17619-1 0  9992
2 58675  43.0008 195.9162 0001700 263.6849  18.9453 15.67617815  3579
STARLINK-31066          
1 58676U 23211K   24014.58334491 -.01585501  00000+0 -12137-1 0  9990
2 58676  43.0004 193.5941 0001923 222.9336 272.4079 15.73957960  3735
STARLINK-31058          
1 58677U 23211L   24014.58334491 -.01723893  00000+0 -17200-1 0  9995
2 58677  43.0004 194.0496 0001627 268.8380  44.9405 15.67989009  3621
STARLINK-31125          
1 58678U 23211M   24014.25002315 -.01742276  00000+0 -16527-1 0  9994
2 58678  43.0008 196.0480 0001167 269.6324 320.4923 15.69242420  3579
STARLINK-31110          
1 58679U 23211N   24014.25002315 -.01741095  00000+0 -16514-1 0  9999
2 58679  43.0007 196.0458 0001459 265.9809 325.0217 15.69239487  3672
STARLINK-31112          
1 58680U 23211P   24014.25002315 -.01740411  00000+0 -16509-1 0  9996
2 58680  43.0008 196.0412 0001519 272.2068 320.5496 15.69235339  3570
STARLINK-31147          
1 58681U 23211Q   24014.25002315 -.01740289  00000+0 -16505-1 0  9996
2 58681  43.0008 196.0437 0001692 268.1318 323.7472 15.69237231  3675
STARLINK-31144          
1 58682U 23211R   24014.25002315 -.01742204  00000+0 -16532-1 0  9996
2 58682  43.0008 196.0345 0001397 269.4070 325.9798 15.69231536  3672
STARLINK-31095          
1 58683U 23211S   24014.58334491 -.01724688  00000+0 -17217-1 0  9993
2 58683  43.0006 194.0374 0001535 270.5711  48.4561 15.67978896  3726
STARLINK-31107          
1 58684U 23211T   24014.25002315 -.01741014  00000+0 -16522-1 0  9995
2 58684  43.0010 196.0287 0001550 265.6709 332.3468 15.69225626  3578
STARLINK-31121          
1 58685U 23211U   24014.25002315 -.01741441  00000+0 -16529-1 0  9997
2 58685  43.0010 196.0218 0001641 264.5793 336.0682 15.69221154  3576
STARLINK-31137          
1 58686U 23211V   24014.25002315 -.01741960  00000+0 -16531-1 0  9997
2 58686  43.0010 196.0305 0001481 262.7370 334.4034 15.69228207  3677
STARLINK-31109          
1 58687U 23211W   24014.25002315 -.01742711  00000+0 -16540-1 0  9993
2 58687  43.0010 196.0239 0001748 266.9120 332.8580 15.69223892  3672
STARLINK-31139          
1 58688U 23211X   24014.25002315 -.01742091  00000+0 -16536-1 0  9990
2 58688  43.0011 196.0266 0001325 262.5885 336.3057 15.69224798  3679
STARLINK-31106          
1 58689U 23211Y   24014.25002315 -.01737514  00000+0 -16480-1 0  9993
2 58689  43.0010 196.0334 0001937 265.5474 330.7165 15.69227077  3571
HULIANWANG JISHU SHIYAN*
1 58691U 23212A   24014.47517190  .00000064  00000+0  17783-3 0  9992
2 58691  50.0023   7.7010 0007723 353.5480   6.5317 13.86990751  2152
HULIANWANG JISHU SHIYAN*
1 58692U 23212B   24014.46926506  .00000035  00000+0  15304-3 0  9992
2 58692  49.9992   7.6675 0004747 339.6354  20.4353 13.86963479  2151
HULIANWANG JISHU SHIYAN*
1 58693U 23212C   24014.47217124  .00000039  00000+0  15657-3 0  9998
2 58693  50.0006   7.6839 0006910 336.1653  23.8923 13.86989507  2151
XPOSAT                  
1 58694U 24001A   24001.68468223  .00000628  00000+0  00000+0 0  9999
2 58694   5.9870 115.4463 0010488 359.8378  55.4280 14.74838619    62
POEM-3                  
1 58695U 24001B   24004.74596408  .00097489  00000+0  61795-3 0  9990
2 58695   9.6657  72.7054 0007217  17.8593 342.1874 15.74486494   565
OVZON-3                 
1 58698U 24003A   24007.90008986  .00001087  00000+0  14885-2 0  9991
2 58698  26.8783 294.3788 7795380 181.9350 170.5174  1.65227493    69
FALCON 9 R/B            
1 58699U 24003B   24012.67501888  .00009228  00000+0  54435-2 0  9991
2 58699  26.7312 293.2781 7794624 183.8908 160.6709  1.66259168   157
TIANMU-1 15             
1 58700U 24004A   24014.50556494  .00007907  00000+0  44209-3 0  9993
2 58700  97.4564 198.6989 0010337 222.4445 137.5988 15.13703391  1368
TIANMU-1 16             
1 58701U 24004B   24014.50339692  .00007931  00000+0  43757-3 0  9997
2 58701  97.4490 198.6923 0010534 229.1822 130.8497 15.14175594  1367
TIANMU-1 17             
1 58702U 24004C   24014.50254919  .00007930  00000+0  43577-3 0  9995
2 58702  97.4534 198.6991 0009864 231.6214 128.4132 15.14327805  1351
